{
    "links": {
        "self": "http://www.neowsapp.com/rest/v1/neo/54016366?api_key=iIulBulltgU6a56xZRHN4H3l9WmuAYTsLGpBGhQ2"
    },
    "id": "54016366",
    "neo_reference_id": "54016366",
    "name": "(2020 FB5)",
    "designation": "2020 FB5",
    "nasa_jpl_url": "http://ssd.jpl.nasa.gov/sbdb.cgi?sstr=54016366",
    "absolute_magnitude_h": 24.76,
    "estimated_diameter": {
        "kilometers": {
            "estimated_diameter_min": 0.0296862251,
            "estimated_diameter_max": 0.0663804174
        },
        "meters": {
            "estimated_diameter_min": 29.686225126,
            "estimated_diameter_max": 66.3804173771
        },
        "miles": {
            "estimated_diameter_min": 0.0184461594,
            "estimated_diameter_max": 0.0412468663
        },
        "feet": {
            "estimated_diameter_min": 97.3957548424,
            "estimated_diameter_max": 217.7835285475
        }
    },
    "is_potentially_hazardous_asteroid": false,
    "close_approach_data": [
        {
            "close_approach_date": "2018-03-16",
            "close_approach_date_full": "2018-Mar-16 05:28",
            "epoch_date_close_approach": 1521178080000,
            "relative_velocity": {
                "kilometers_per_second": "23.8383181487",
                "kilometers_per_hour": "85817.9453352275",
                "miles_per_hour": "53323.9338667695"
            },
            "miss_distance": {
                "astronomical": "0.203082192",
                "lunar": "78.998972688",
                "kilometers": "30380663.35813104",
                "miles": "18877668.841606752"
            },
            "orbiting_body": "Earth"
        },
        {
            "close_approach_date": "2020-02-14",
            "close_approach_date_full": "2020-Feb-14 06:41",
            "epoch_date_close_approach": 1581662460000,
            "relative_velocity": {
                "kilometers_per_second": "23.7194696606",
                "kilometers_per_hour": "85390.0907782774",
                "miles_per_hour": "53058.0816838691"
            },
            "miss_distance": {
                "astronomical": "0.0511817298",
                "lunar": "19.9096928922",
                "kilometers": "7656677.760995526",
                "miles": "4757638.9460332188"
            },
            "orbiting_body": "Merc"
        },
        {
            "close_approach_date": "2020-03-22",
            "close_approach_date_full": "2020-Mar-22 23:59",
            "epoch_date_close_approach": 1584921540000,
            "relative_velocity": {
                "kilometers_per_second": "29.2178297345",
                "kilometers_per_hour": "105184.1870442284",
                "miles_per_hour": "65357.3633331207"
            },
            "miss_distance": {
                "astronomical": "0.0183595497",
                "lunar": "7.1418648333",
                "kilometers": "2746549.529279139",
                "miles": "1706626.7401605582"
            },
            "orbiting_body": "Earth"
        },
        {
            "close_approach_date": "2022-03-30",
            "close_approach_date_full": "2022-Mar-30 10:43",
            "epoch_date_close_approach": 1648636980000,
            "relative_velocity": {
                "kilometers_per_second": "34.0508383577",
                "kilometers_per_hour": "122583.0180876059",
                "miles_per_hour": "76168.3203222682"
            },
            "miss_distance": {
                "astronomical": "0.1466031354",
                "lunar": "57.0286196706",
                "kilometers": "21931516.791161598",
                "miles": "13627612.6132341324"
            },
            "orbiting_body": "Earth"
        }
    ],
    "orbital_data": {
        "orbit_id": "4",
        "orbit_determination_date": "2020-04-03 06:34:51",
        "first_observation_date": "2020-03-24",
        "last_observation_date": "2020-04-02",
        "data_arc_in_days": 9,
        "observations_used": 121,
        "orbit_uncertainty": "8",
        "minimum_orbit_intersection": ".0120812",
        "jupiter_tisserand_invariant": "3.844",
        "epoch_osculation": "2458933.5",
        "eccentricity": ".8430846728799628",
        "semi_major_axis": "1.602217066032988",
        "inclination": "3.096010331528752",
        "ascending_node_longitude": "170.1751817844916",
        "orbital_period": "740.7650041447835",
        "perihelion_distance": ".2514124150338725",
        "perihelion_argument": "243.5832589646832",
        "aphelion_distance": "2.953021717032103",
        "perihelion_time": "2458889.718577354855",
        "mean_anomaly": "21.27707446229686",
        "mean_motion": ".485984081302034",
        "equinox": "J2000",
        "orbit_class": {
            "orbit_class_type": "APO",
            "orbit_class_description": "Near-Earth asteroid orbits which cross the Earth’s orbit similar to that of 1862 Apollo",
            "orbit_class_range": "a (semi-major axis) > 1.0 AU; q (perihelion) < 1.017 AU"
        }
    },
    "is_sentry_object": false
}